{
  "type": "FeatureCollection",
  "features": [
    {
      "type": "Feature",
      "properties": {
        "norad_id": 67060,
        "name": "HULIANWANG DIGUI-120",
        "group": "last-30-days",
        "lat": -48.65233173131082,
        "lon": -130.79103856994297,
        "alt_km": 801.4864157660304,
        "timestamp": "2025-12-21T03:56:49.618686+00:00",
        "meta_object_name": "HULIANWANG DIGUI-120",
        "meta_object_id": "2025-295B",
        "meta_epoch": "2025-12-15T17:12:24.401376",
        "meta_mean_motion": 14.25706335,
        "meta_eccentricity": 0.00132237,
        "meta_inclination": 50.005,
        "meta_ra_of_asc_node": 359.6709,
        "meta_arg_of_pericenter": 257.265,
        "meta_mean_anomaly": 102.6786,
        "meta_ephemeris_type": 0,
        "meta_classification_type": "U",
        "meta_norad_cat_id": 67060,
        "meta_element_set_no": 999,
        "meta_rev_at_epoch": 54,
        "meta_bstar": 6.6896441e-05,
        "meta_mean_motion_dot": 0,
        "meta_mean_motion_ddot": 0,
        "tle_line1": "1 67060U 25295B   25349.71694909  .00000000  00000+0  66896-4 0  9998",
        "tle_line2": "2 67060  50.0050 359.6709 0013223 257.2650 102.6786 14.25706335   543"
      },
      "geometry": {
        "type": "Point",
        "coordinates": [
          -130.79103856994297,
          -48.65233173131082
        ]
      }
    },
    {
      "type": "Feature",
      "properties": {
        "norad_id": 67061,
        "name": "HULIANWANG DIGUI-121",
        "group": "last-30-days",
        "lat": -48.77889589824586,
        "lon": -129.9451603305043,
        "alt_km": 801.3101998510065,
        "timestamp": "2025-12-21T03:56:49.618694+00:00",
        "meta_object_name": "HULIANWANG DIGUI-121",
        "meta_object_id": "2025-295C",
        "meta_epoch": "2025-12-15T17:12:22.292352",
        "meta_mean_motion": 14.25729079,
        "meta_eccentricity": 0.00132682,
        "meta_inclination": 50.0012,
        "meta_ra_of_asc_node": 359.6606,
        "meta_arg_of_pericenter": 256.3366,
        "meta_mean_anomaly": 103.6071,
        "meta_ephemeris_type": 0,
        "meta_classification_type": "U",
        "meta_norad_cat_id": 67061,
        "meta_element_set_no": 999,
        "meta_rev_at_epoch": 54,
        "meta_bstar": 6.6638352e-05,
        "meta_mean_motion_dot": -1e-08,
        "meta_mean_motion_ddot": 0,
        "tle_line1": "1 67061U 25295C   25349.71692468 -.00000001  00000+0  66638-4 0  9993",
        "tle_line2": "2 67061  50.0012 359.6606 0013268 256.3366 103.6071 14.25729079   549"
      },
      "geometry": {
        "type": "Point",
        "coordinates": [
          -129.9451603305043,
          -48.77889589824586
        ]
      }
    },
    {
      "type": "Feature",
      "properties": {
        "norad_id": 67062,
        "name": "HULIANWANG DIGUI-122",
        "group": "last-30-days",
        "lat": -48.991729916398945,
        "lon": -128.4469220862622,
        "alt_km": 801.66095906585,
        "timestamp": "2025-12-21T03:56:49.618704+00:00",
        "meta_object_name": "HULIANWANG DIGUI-122",
        "meta_object_id": "2025-295D",
        "meta_epoch": "2025-12-20T16:38:16.862208",
        "meta_mean_motion": 14.25755829,
        "meta_eccentricity": 0.0013168,
        "meta_inclination": 50.0054,
        "meta_ra_of_asc_node": 338.654,
        "meta_arg_of_pericenter": 281.2647,
        "meta_mean_anomaly": 78.6787,
        "meta_ephemeris_type": 0,
        "meta_classification_type": "U",
        "meta_norad_cat_id": 67062,
        "meta_element_set_no": 999,
        "meta_rev_at_epoch": 125,
        "meta_bstar": 9.0792e-05,
        "meta_mean_motion_dot": 5.7e-07,
        "meta_mean_motion_ddot": 0,
        "tle_line1": "1 67062U 25295D   25354.69325072  .00000057  00000+0  90792-4 0  9999",
        "tle_line2": "2 67062  50.0054 338.6540 0013168 281.2647  78.6787 14.25755829  1254"
      },
      "geometry": {
        "type": "Point",
        "coordinates": [
          -128.4469220862622,
          -48.991729916398945
        ]
      }
    },
    {
      "type": "Feature",
      "properties": {
        "norad_id": 67063,
        "name": "HULIANWANG DIGUI-123",
        "group": "last-30-days",
        "lat": -49.67980275129683,
        "lon": -121.79185861898308,
        "alt_km": 801.4117790025557,
        "timestamp": "2025-12-21T03:56:49.618714+00:00",
        "meta_object_name": "HULIANWANG DIGUI-123",
        "meta_object_id": "2025-295E",
        "meta_epoch": "2025-12-20T19:58:57.535968",
        "meta_mean_motion": 14.25888713,
        "meta_eccentricity": 0.0012482,
        "meta_inclination": 50.0061,
        "meta_ra_of_asc_node": 338.0602,
        "meta_arg_of_pericenter": 280.943,
        "meta_mean_anomaly": 79.0079,
        "meta_ephemeris_type": 0,
        "meta_classification_type": "U",
        "meta_norad_cat_id": 67063,
        "meta_element_set_no": 999,
        "meta_rev_at_epoch": 127,
        "meta_bstar": 8.6908e-05,
        "meta_mean_motion_dot": 4.8e-07,
        "meta_mean_motion_ddot": 0,
        "tle_line1": "1 67063U 25295E   25354.83261037  .00000048  00000+0  86908-4 0  9990",
        "tle_line2": "2 67063  50.0061 338.0602 0012482 280.9430  79.0079 14.25888713  1270"
      },
      "geometry": {
        "type": "Point",
        "coordinates": [
          -121.79185861898308,
          -49.67980275129683
        ]
      }
    },
    {
      "type": "Feature",
      "properties": {
        "norad_id": 67064,
        "name": "HULIANWANG DIGUI-124",
        "group": "last-30-days",
        "lat": -49.86278166879032,
        "lon": -118.69950186220944,
        "alt_km": 801.2202267413531,
        "timestamp": "2025-12-21T03:56:49.618723+00:00",
        "meta_object_name": "HULIANWANG DIGUI-124",
        "meta_object_id": "2025-295F",
        "meta_epoch": "2025-12-20T19:58:25.123872",
        "meta_mean_motion": 14.25949114,
        "meta_eccentricity": 0.0012091,
        "meta_inclination": 50.0036,
        "meta_ra_of_asc_node": 338.0443,
        "meta_arg_of_pericenter": 275.7242,
        "meta_mean_anomaly": 84.2293,
        "meta_ephemeris_type": 0,
        "meta_classification_type": "U",
        "meta_norad_cat_id": 67064,
        "meta_element_set_no": 999,
        "meta_rev_at_epoch": 127,
        "meta_bstar": -0.00017733,
        "meta_mean_motion_dot": -5.86e-06,
        "meta_mean_motion_ddot": 0,
        "tle_line1": "1 67064U 25295F   25354.83223523 -.00000586  00000+0 -17733-3 0  9997",
        "tle_line2": "2 67064  50.0036 338.0443 0012091 275.7242  84.2293 14.25949114  1274"
      },
      "geometry": {
        "type": "Point",
        "coordinates": [
          -118.69950186220944,
          -49.86278166879032
        ]
      }
    },
    {
      "type": "Feature",
      "properties": {
        "norad_id": 67065,
        "name": "HULIANWANG DIGUI-125",
        "group": "last-30-days",
        "lat": -49.87014595786817,
        "lon": -118.4827084372749,
        "alt_km": 801.2770358050639,
        "timestamp": "2025-12-21T03:56:49.618734+00:00",
        "meta_object_name": "HULIANWANG DIGUI-125",
        "meta_object_id": "2025-295G",
        "meta_epoch": "2025-12-20T19:58:22.620000",
        "meta_mean_motion": 14.25954304,
        "meta_eccentricity": 0.0012274,
        "meta_inclination": 50.0011,
        "meta_ra_of_asc_node": 338.0426,
        "meta_arg_of_pericenter": 281.6952,
        "meta_mean_anomaly": 78.2584,
        "meta_ephemeris_type": 0,
        "meta_classification_type": "U",
        "meta_norad_cat_id": 67065,
        "meta_element_set_no": 999,
        "meta_rev_at_epoch": 127,
        "meta_bstar": 8.1057e-05,
        "meta_mean_motion_dot": 3.4e-07,
        "meta_mean_motion_ddot": 0,
        "tle_line1": "1 67065U 25295G   25354.83220625  .00000034  00000+0  81057-4 0  9995",
        "tle_line2": "2 67065  50.0011 338.0426 0012274 281.6952  78.2584 14.25954304  1279"
      },
      "geometry": {
        "type": "Point",
        "coordinates": [
          -118.4827084372749,
          -49.87014595786817
        ]
      }
    },
    {
      "type": "Feature",
      "properties": {
        "norad_id": 67066,
        "name": "HULIANWANG DIGUI-126",
        "group": "last-30-days",
        "lat": -49.95896357065137,
        "lon": -110.9899141315913,
        "alt_km": 801.1406339169007,
        "timestamp": "2025-12-21T03:56:49.618743+00:00",
        "meta_object_name": "HULIANWANG DIGUI-126",
        "meta_object_id": "2025-295H",
        "meta_epoch": "2025-12-20T19:57:04.607712",
        "meta_mean_motion": 14.26097295,
        "meta_eccentricity": 0.0011438,
        "meta_inclination": 50.0014,
        "meta_ra_of_asc_node": 338.037,
        "meta_arg_of_pericenter": 278.7504,
        "meta_mean_anomaly": 81.2114,
        "meta_ephemeris_type": 0,
        "meta_classification_type": "U",
        "meta_norad_cat_id": 67066,
        "meta_element_set_no": 999,
        "meta_rev_at_epoch": 127,
        "meta_bstar": 7.9926e-05,
        "meta_mean_motion_dot": 3.2e-07,
        "meta_mean_motion_ddot": 0,
        "tle_line1": "1 67066U 25295H   25354.83130333  .00000032  00000+0  79926-4 0  9992",
        "tle_line2": "2 67066  50.0014 338.0370 0011438 278.7504  81.2114 14.26097295  1273"
      },
      "geometry": {
        "type": "Point",
        "coordinates": [
          -110.9899141315913,
          -49.95896357065137
        ]
      }
    }
  ]
}